CCSDS_OMM_VERS = 2.0
CREATION_DATE  = 
ORIGINATOR     = 

OBJECT_NAME    = H-2A R/B
OBJECT_ID      = 2006-002B
CENTER_NAME    = EARTH
REF_FRAME      = TEME
TIME_SYSTEM    = UTC
MEAN_ELEMENT_THEORY = SGP/SGP4

EPOCH          = 2026-03-09T09:52:09.347520
MEAN_MOTION    = 15.16413860
ECCENTRICITY   = .00519204
INCLINATION    = 98.2411
RA_OF_ASC_NODE = 215.4104
ARG_OF_PERICENTER = 241.9592
MEAN_ANOMALY   = 117.6382

EPHEMERIS_TYPE = 0
CLASSIFICATION_TYPE = U
NORAD_CAT_ID   = 28932
ELEMENT_SET_NO = 999
REV_AT_EPOCH   = 9439
BSTAR          = .60106163E-3
MEAN_MOTION_DOT = .12018E-3
MEAN_MOTION_DDOT = 0

CCSDS_OMM_VERS = 2.0
CREATION_DATE  = 
ORIGINATOR     = 

OBJECT_NAME    = RESURS-DK 1
OBJECT_ID      = 2006-021A
CENTER_NAME    = EARTH
REF_FRAME      = TEME
TIME_SYSTEM    = UTC
MEAN_ELEMENT_THEORY = SGP/SGP4

EPOCH          = 2026-03-09T14:26:17.790720
MEAN_MOTION    = 15.12743568
ECCENTRICITY   = .00019094
INCLINATION    = 69.9316
RA_OF_ASC_NODE = 237.2506
ARG_OF_PERICENTER = 162.9591
MEAN_ANOMALY   = 197.1639

EPHEMERIS_TYPE = 0
CLASSIFICATION_TYPE = U
NORAD_CAT_ID   = 29228
ELEMENT_SET_NO = 999
REV_AT_EPOCH   = 8751
BSTAR          = .23761503E-3
MEAN_MOTION_DOT = .4069E-4
MEAN_MOTION_DDOT = 0

CCSDS_OMM_VERS = 2.0
CREATION_DATE  = 
ORIGINATOR     = 

OBJECT_NAME    = CZ-4B R/B
OBJECT_ID      = 2006-046C
CENTER_NAME    = EARTH
REF_FRAME      = TEME
TIME_SYSTEM    = UTC
MEAN_ELEMENT_THEORY = SGP/SGP4

EPOCH          = 2026-03-09T14:37:16.200192
MEAN_MOTION    = 15.16903312
ECCENTRICITY   = .0031694
INCLINATION    = 97.5596
RA_OF_ASC_NODE = 113.5186
ARG_OF_PERICENTER = 267.6280
MEAN_ANOMALY   = 92.1325

EPHEMERIS_TYPE = 0
CLASSIFICATION_TYPE = U
NORAD_CAT_ID   = 29507
ELEMENT_SET_NO = 999
REV_AT_EPOCH   = 6003
BSTAR          = .30349392E-3
MEAN_MOTION_DOT = .5987E-4
MEAN_MOTION_DDOT = 0

CCSDS_OMM_VERS = 2.0
CREATION_DATE  = 
ORIGINATOR     = 

OBJECT_NAME    = CZ-2C R/B
OBJECT_ID      = 2007-010B
CENTER_NAME    = EARTH
REF_FRAME      = TEME
TIME_SYSTEM    = UTC
MEAN_ELEMENT_THEORY = SGP/SGP4

EPOCH          = 2026-03-09T07:16:35.658336
MEAN_MOTION    = 14.20245990
ECCENTRICITY   = .00579313
INCLINATION    = 98.3979
RA_OF_ASC_NODE = 181.6013
ARG_OF_PERICENTER = 295.7457
MEAN_ANOMALY   = 63.7748

EPHEMERIS_TYPE = 0
CLASSIFICATION_TYPE = U
NORAD_CAT_ID   = 31114
ELEMENT_SET_NO = 999
REV_AT_EPOCH   = 97966
BSTAR          = .9305299E-4
MEAN_MOTION_DOT = .161E-5
MEAN_MOTION_DDOT = 0

CCSDS_OMM_VERS = 2.0
CREATION_DATE  = 
ORIGINATOR     = 

OBJECT_NAME    = COSMO-SKYMED 1
OBJECT_ID      = 2007-023A
CENTER_NAME    = EARTH
REF_FRAME      = TEME
TIME_SYSTEM    = UTC
MEAN_ELEMENT_THEORY = SGP/SGP4

EPOCH          = 2026-03-09T15:56:50.683200
MEAN_MOTION    = 14.96533836
ECCENTRICITY   = .00012486
INCLINATION    = 97.8871
RA_OF_ASC_NODE = 259.6959
ARG_OF_PERICENTER = 100.9294
MEAN_ANOMALY   = 259.2067

EPHEMERIS_TYPE = 0
CLASSIFICATION_TYPE = U
NORAD_CAT_ID   = 31598
ELEMENT_SET_NO = 999
REV_AT_EPOCH   = 1490
BSTAR          = .38385368E-3
MEAN_MOTION_DOT = .4306E-4
MEAN_MOTION_DDOT = 0

CCSDS_OMM_VERS = 2.0
CREATION_DATE  = 
ORIGINATOR     = 

OBJECT_NAME    = COSMOS 2428
OBJECT_ID      = 2007-029A
CENTER_NAME    = EARTH
REF_FRAME      = TEME
TIME_SYSTEM    = UTC
MEAN_ELEMENT_THEORY = SGP/SGP4

EPOCH          = 2026-03-09T14:31:56.618688
MEAN_MOTION    = 14.12946102
ECCENTRICITY   = .0009136
INCLINATION    = 70.9433
RA_OF_ASC_NODE = 203.5194
ARG_OF_PERICENTER = 277.1288
MEAN_ANOMALY   = 82.8795

EPHEMERIS_TYPE = 0
CLASSIFICATION_TYPE = U
NORAD_CAT_ID   = 31792
ELEMENT_SET_NO = 999
REV_AT_EPOCH   = 96408
BSTAR          = .60414611E-4
MEAN_MOTION_DOT = .65E-6
MEAN_MOTION_DDOT = 0

CCSDS_OMM_VERS = 2.0
CREATION_DATE  = 
ORIGINATOR     = 

OBJECT_NAME    = SL-16 R/B
OBJECT_ID      = 2007-029B
CENTER_NAME    = EARTH
REF_FRAME      = TEME
TIME_SYSTEM    = UTC
MEAN_ELEMENT_THEORY = SGP/SGP4

EPOCH          = 2026-03-09T15:25:17.272992
MEAN_MOTION    = 14.14833321
ECCENTRICITY   = .00023047
INCLINATION    = 70.9759
RA_OF_ASC_NODE = 172.4840
ARG_OF_PERICENTER = 276.2076
MEAN_ANOMALY   = 186.5580

EPHEMERIS_TYPE = 0
CLASSIFICATION_TYPE = U
NORAD_CAT_ID   = 31793
ELEMENT_SET_NO = 999
REV_AT_EPOCH   = 96536
BSTAR          = .46622141E-4
MEAN_MOTION_DOT = .42E-6
MEAN_MOTION_DDOT = 0

CCSDS_OMM_VERS = 2.0
CREATION_DATE  = 
ORIGINATOR     = 

OBJECT_NAME    = KORONAS-FOTON
OBJECT_ID      = 2009-003A
CENTER_NAME    = EARTH
REF_FRAME      = TEME
TIME_SYSTEM    = UTC
MEAN_ELEMENT_THEORY = SGP/SGP4

EPOCH          = 2026-03-09T15:13:51.520512
MEAN_MOTION    = 15.43321153
ECCENTRICITY   = .00113181
INCLINATION    = 82.4276
RA_OF_ASC_NODE = 275.9350
ARG_OF_PERICENTER = 149.7798
MEAN_ANOMALY   = 210.4104

EPHEMERIS_TYPE = 0
CLASSIFICATION_TYPE = U
NORAD_CAT_ID   = 33504
ELEMENT_SET_NO = 999
REV_AT_EPOCH   = 94573
BSTAR          = .25961185E-3
MEAN_MOTION_DOT = .11628E-3
MEAN_MOTION_DDOT = 0

CCSDS_OMM_VERS = 2.0
CREATION_DATE  = 
ORIGINATOR     = 

OBJECT_NAME    = CZ-2C R/B
OBJECT_ID      = 2011-030B
CENTER_NAME    = EARTH
REF_FRAME      = TEME
TIME_SYSTEM    = UTC
MEAN_ELEMENT_THEORY = SGP/SGP4

EPOCH          = 2026-03-09T11:41:23.013888
MEAN_MOTION    = 14.81221776
ECCENTRICITY   = .00524151
INCLINATION    = 97.8549
RA_OF_ASC_NODE = 25.7543
ARG_OF_PERICENTER = 352.7470
MEAN_ANOMALY   = 123.0453

EPHEMERIS_TYPE = 0
CLASSIFICATION_TYPE = U
NORAD_CAT_ID   = 37731
ELEMENT_SET_NO = 999
REV_AT_EPOCH   = 79006
BSTAR          = .28149836E-3
MEAN_MOTION_DOT = .2189E-4
MEAN_MOTION_DDOT = 0

CCSDS_OMM_VERS = 2.0
CREATION_DATE  = 
ORIGINATOR     = 

OBJECT_NAME    = H-2A R/B
OBJECT_ID      = 2012-025E
CENTER_NAME    = EARTH
REF_FRAME      = TEME
TIME_SYSTEM    = UTC
MEAN_ELEMENT_THEORY = SGP/SGP4

EPOCH          = 2026-03-09T11:03:41.961312
MEAN_MOTION    = 14.95167710
ECCENTRICITY   = .00433327
INCLINATION    = 98.4741
RA_OF_ASC_NODE = 35.4890
ARG_OF_PERICENTER = 315.2630
MEAN_ANOMALY   = 44.5096

EPHEMERIS_TYPE = 0
CLASSIFICATION_TYPE = U
NORAD_CAT_ID   = 38341
ELEMENT_SET_NO = 999
REV_AT_EPOCH   = 74818
BSTAR          = .44859219E-3
MEAN_MOTION_DOT = .495E-4
MEAN_MOTION_DDOT = 0

CCSDS_OMM_VERS = 2.0
CREATION_DATE  = 
ORIGINATOR     = 

OBJECT_NAME    = SHIJIAN-16 (SJ-16)
OBJECT_ID      = 2013-057A
CENTER_NAME    = EARTH
REF_FRAME      = TEME
TIME_SYSTEM    = UTC
MEAN_ELEMENT_THEORY = SGP/SGP4

EPOCH          = 2026-03-09T15:05:48.960096
MEAN_MOTION    = 14.92345160
ECCENTRICITY   = .00154531
INCLINATION    = 74.9736
RA_OF_ASC_NODE = 185.2028
ARG_OF_PERICENTER = 112.8141
MEAN_ANOMALY   = 247.4682

EPHEMERIS_TYPE = 0
CLASSIFICATION_TYPE = U
NORAD_CAT_ID   = 39358
ELEMENT_SET_NO = 999
REV_AT_EPOCH   = 67149
BSTAR          = .14773321E-3
MEAN_MOTION_DOT = .1485E-4
MEAN_MOTION_DDOT = 0

CCSDS_OMM_VERS = 2.0
CREATION_DATE  = 
ORIGINATOR     = 

OBJECT_NAME    = SL-4 R/B
OBJECT_ID      = 2014-021B
CENTER_NAME    = EARTH
REF_FRAME      = TEME
TIME_SYSTEM    = UTC
MEAN_ELEMENT_THEORY = SGP/SGP4

EPOCH          = 2026-03-09T02:37:43.173408
MEAN_MOTION    = 15.39160447
ECCENTRICITY   = .00975963
INCLINATION    = 51.6078
RA_OF_ASC_NODE = 340.1090
ARG_OF_PERICENTER = 100.9217
MEAN_ANOMALY   = 260.2766

EPHEMERIS_TYPE = 0
CLASSIFICATION_TYPE = U
NORAD_CAT_ID   = 39679
ELEMENT_SET_NO = 999
REV_AT_EPOCH   = 65618
BSTAR          = .43042763E-3
MEAN_MOTION_DOT = .19652E-3
MEAN_MOTION_DDOT = 0

