H-2A R/B                
1 28932U 06002B   26068.41121930  .00012018  00000+0  60106-3 0  9992
2 28932  98.2411 215.4104 0051920 241.9592 117.6382 15.16413860 94395
RESURS-DK 1             
1 29228U 06021A   26068.60159480  .00004069  00000+0  23762-3 0  9998
2 29228  69.9316 237.2506 0001909 162.9591 197.1639 15.12743568 87515
CZ-4B R/B               
1 29507U 06046C   26068.60921528  .00005987  00000+0  30349-3 0  9994
2 29507  97.5596 113.5186 0031694 267.6280  92.1325 15.16903312 60037
CZ-2C R/B               
1 31114U 07010B   26068.30319049  .00000161  00000+0  93053-4 0  9990
2 31114  98.3979 181.6013 0057931 295.7457  63.7748 14.20245990979669
COSMO-SKYMED 1          
1 31598U 07023A   26068.66447550  .00004306  00000+0  38385-3 0  9999
2 31598  97.8871 259.6959 0001248 100.9294 259.2067 14.96533836 14906
COSMOS 2428             
1 31792U 07029A   26068.60551642  .00000065  00000+0  60415-4 0  9991
2 31792  70.9433 203.5194 0009136 277.1288  82.8795 14.12946102964084
SL-16 R/B               
1 31793U 07029B   26068.64256103  .00000042  00000+0  46622-4 0  9999
2 31793  70.9759 172.4840 0002304 276.2076 186.5580 14.14833321965369
KORONAS-FOTON           
1 33504U 09003A   26068.63462408  .00011628  00000+0  25961-3 0  9995
2 33504  82.4276 275.9350 0011318 149.7798 210.4104 15.43321153945734
CZ-2C R/B               
1 37731U 11030B   26068.48707192  .00002189  00000+0  28150-3 0  9994
2 37731  97.8549  25.7543 0052415 352.7470 123.0453 14.81221776790065
H-2A R/B                
1 38341U 12025E   26068.46090233  .00004950  00000+0  44859-3 0  9998
2 38341  98.4741  35.4890 0043332 315.2630  44.5096 14.95167710748185
SHIJIAN-16 (SJ-16)      
1 39358U 13057A   26068.62903889  .00001485  00000+0  14773-3 0  9993
2 39358  74.9736 185.2028 0015453 112.8141 247.4682 14.92345160671493
SL-4 R/B                
1 39679U 14021B   26068.10952747  .00019652  00000+0  43043-3 0  9998
2 39679  51.6078 340.1090 0097596 100.9217 260.2766 15.39160447656181
